NORAD_CAT_ID,OBJECT_NAME,OBJECT_TYPE,EPOCH,MEAN_MOTION,ECCENTRICITY,INCLINATION,RA_OF_ASC_NODE,ARG_OF_PERICENTER,MEAN_ANOMALY,BSTAR,MEAN_MOTION_DOT,MEAN_MOTION_DDOT,TLE_LINE0,TLE_LINE1,TLE_LINE2,SEMIMAJOR_AXIS,PERIOD,APOGEE,PERIGEE,DECAYED
52868.0,STARLINK-4261,PAYLOAD,2023-09-15 23:00:16,15.08847208,0.0001524,53.2156,130.1364,86.5574,273.5593,0.00066073,0.00010245,0.0,0 STARLINK-4261,1 52868U 22062AQ  23258.95852973  .00010245  00000-0  66073-3 0  9996,2 52868  53.2156 130.1364 0001524  86.5574 273.5593 15.08847208 69684,6917.858,95.437,540.778,538.669,0.0
52868.0,STARLINK-4261,PAYLOAD,2023-09-17 00:26:27,15.0883818,0.0001702,53.2161,125.3782,73.4015,286.7164,0.00021539,3.141e-05,0.0,0 STARLINK-4261,1 52868U 22062AQ  23260.01837577  .00003141  00000-0  21539-3 0  9994,2 52868  53.2161 125.3782 0001702  73.4015 286.7164 15.08838180 69840,6917.886,95.438,540.928,538.574,0.0
52868.0,STARLINK-4261,PAYLOAD,2023-09-17 14:44:55,15.0885485,0.0001558,53.2154,122.7015,81.9512,278.1657,-9.9179e-05,-1.867e-05,0.0,0 STARLINK-4261,1 52868U 22062AQ  23260.61452755 -.00001867  00000-0 -99179-4 0  9992,2 52868  53.2154 122.7015 0001558  81.9512 278.1657 15.08854850 69931,6917.835,95.437,540.778,538.622,0.0
52868.0,STARLINK-4261,PAYLOAD,2023-09-17 21:06:27,15.0885132,0.0001524,53.215,121.5135,81.195,278.9215,0.00019666,2.844e-05,0.0,0 STARLINK-4261,1 52868U 22062AQ  23260.87948805  .00002844  00000-0  19666-3 0  9992,2 52868  53.2150 121.5135 0001524  81.1950 278.9215 15.08851320 69485,6917.846,95.437,540.765,538.657,0.0
52868.0,STARLINK-4261,PAYLOAD,2023-09-18 17:46:28,15.08840884,0.0001505,53.2151,117.6487,80.4278,279.6884,9.462e-05,1.218e-05,0.0,0 STARLINK-4261,1 52868U 22062AQ  23261.74061298  .00001218  00000-0  94620-4 0  9999,2 52868  53.2151 117.6487 0001505  80.4278 279.6884 15.08840884 70100,6917.878,95.437,540.784,538.702,0.0
52868.0,STARLINK-4261,PAYLOAD,2023-09-18 20:57:15,15.08845533,0.0001521,53.216,117.0524,87.1104,273.0062,0.0001384,1.916e-05,0.0,0 STARLINK-4261,1 52868U 22062AQ  23261.87309036  .00001916  00000-0  13840-3 0  9997,2 52868  53.2160 117.0524 0001521  87.1104 273.0062 15.08845533 69634,6917.863,95.437,540.781,538.676,0.0
52868.0,STARLINK-4261,PAYLOAD,2023-09-19 00:08:01,15.0884906,0.000144,53.2154,116.4567,88.3763,271.7394,0.00019815,2.868e-05,0.0,0 STARLINK-4261,1 52868U 22062AQ  23262.00556860  .00002868  00000-0  19815-3 0  9997,2 52868  53.2154 116.4567 0001440  88.3763 271.7394 15.08849060 70141,6917.853,95.437,540.714,538.722,0.0
52868.0,STARLINK-4261,PAYLOAD,2023-09-19 19:12:38,15.08847617,0.0001488,53.2152,112.8893,88.1233,271.9929,0.00011493,1.542e-05,0.0,0 STARLINK-4261,1 52868U 22062AQ  23262.80044723  .00001542  00000-0  11493-3 0  9997,2 52868  53.2152 112.8893 0001488  88.1233 271.9929 15.08847617 70268,6917.857,95.437,540.751,538.693,0.0
52868.0,STARLINK-4261,PAYLOAD,2023-09-19 23:58:47,15.08852019,0.0001477,53.215,111.9953,92.6338,267.4823,0.000156,2.196e-05,0.0,0 STARLINK-4261,1 52868U 22062AQ  23262.99916363  .00002196  00000-0  15600-3 0  9995,2 52868  53.2150 111.9953 0001477  92.6338 267.4823 15.08852019 69800,6917.844,95.437,540.73,538.687,0.0
52868.0,STARLINK-4261,PAYLOAD,2023-09-20 19:03:26,15.08832956,0.0001621,53.2157,108.4277,118.7024,241.4131,-3.6776e-05,-8.73e-06,0.0,0 STARLINK-4261,1 52868U 22062AQ  23263.79405601 -.00000873  00000-0 -36776-4 0  9992,2 52868  53.2157 108.4277 0001621 118.7024 241.4131 15.08832956 70411,6917.902,95.438,540.888,538.646,0.0
52868.0,STARLINK-4261,PAYLOAD,2023-09-20 20:38:49,15.08832145,0.0001404,53.2152,108.131,110.6878,249.4264,-6.5725e-05,-1.334e-05,0.0,0 STARLINK-4261,1 52868U 22062AQ  23263.86029675 -.00001334  00000-0 -65725-4 0  9992,2 52868  53.2152 108.1310 0001404 110.6878 249.4264 15.08832145 69938,6917.904,95.438,540.741,538.798,0.0
52868.0,STARLINK-4261,PAYLOAD,2023-09-21 06:11:08,15.08830496,0.0001337,53.2156,106.3457,96.8191,263.2954,-6.5614e-05,-1.332e-05,0.0,0 STARLINK-4261,1 52868U 22062AQ  23264.25774005 -.00001332  00000-0 -65614-4 0  9995,2 52868  53.2156 106.3457 0001337  96.8191 263.2954 15.08830496 69995,6917.909,95.438,540.699,538.85,0.0
52868.0,STARLINK-4261,PAYLOAD,2023-09-21 18:54:13,15.08838795,0.0001325,53.216,103.9667,93.7109,266.4035,5.8063e-05,6.36e-06,0.0,0 STARLINK-4261,1 52868U 22062AQ  23264.78765783  .00000636  00000-0  58063-4 0  9990,2 52868  53.2160 103.9667 0001325  93.7109 266.4035 15.08838795 70074,6917.884,95.438,540.666,538.832,0.0
52868.0,STARLINK-4261,PAYLOAD,2023-09-22 06:01:55,15.08841777,0.0001249,53.2155,101.8861,99.6987,260.4146,0.00013465,1.856e-05,0.0,0 STARLINK-4261,1 52868U 22062AQ  23265.25133777  .00001856  00000-0  13465-3 0  9996,2 52868  53.2155 101.8861 0001249  99.6987 260.4146 15.08841777 70638,6917.875,95.437,540.604,538.876,0.0
52868.0,STARLINK-4261,PAYLOAD,2023-09-22 21:55:46,15.08848095,0.0001225,53.216,98.9127,94.4378,265.6754,0.00055802,8.606e-05,0.0,0 STARLINK-4261,1 52868U 22062AQ  23265.91373781  .00008606  00000-0  55802-3 0  9991,2 52868  53.2160  98.9127 0001225  94.4378 265.6754 15.08848095 70245,6917.856,95.437,540.568,538.873,0.0
52868.0,STARLINK-4261,PAYLOAD,2023-09-22 23:31:09,15.08856185,0.000117,53.2158,98.615,92.1289,267.9837,0.00043793,6.692e-05,0.0,0 STARLINK-4261,1 52868U 22062AQ  23265.97997334  .00006692  00000-0  43793-3 0  9992,2 52868  53.2158  98.6150 0001170  92.1289 267.9837 15.08856185 70741,6917.831,95.437,540.505,538.887,0.0
52868.0,STARLINK-4261,PAYLOAD,2023-09-23 18:35:47,15.08843989,0.0001266,53.2165,95.0469,88.9105,271.2032,7.6064e-05,9.23e-06,0.0,0 STARLINK-4261,1 52868U 22062AQ  23266.77485700  .00000923  00000-0  76064-4 0  9999,2 52868  53.2165  95.0469 0001266  88.9105 271.2032 15.08843989 70865,6917.868,95.437,540.609,538.857,0.0
52868.0,STARLINK-4261,PAYLOAD,2023-09-24 12:05:02,15.0884025,0.0001332,53.2153,91.7761,87.1516,272.9628,3.5492e-05,2.77e-06,0.0,0 STARLINK-4261,1 52868U 22062AQ  23267.50349798  .00000277  00000-0  35492-4 0  9999,2 52868  53.2153  91.7761 0001332  87.1516 272.9628 15.08840250 70486,6917.88,95.438,540.666,538.823,0.0
52868.0,STARLINK-4261,PAYLOAD,2023-09-24 18:26:34,15.08838782,0.0001306,53.2161,90.5857,88.7458,271.3683,-7.8259e-06,-4.12e-06,0.0,0 STARLINK-4261,1 52868U 22062AQ  23267.76845865 -.00000412  00000-0 -78259-5 0  9995,2 52868  53.2161  90.5857 0001306  88.7458 271.3683 15.08838782 71012,6917.884,95.438,540.653,538.846,0.0
52868.0,STARLINK-4261,PAYLOAD,2023-09-24 20:01:57,15.08844372,0.000116,53.2161,90.2875,95.1546,264.9578,2.7955e-05,1.57e-06,0.0,0 STARLINK-4261,1 52868U 22062AQ  23267.83469556  .00000157  00000-0  27955-4 0  9992,2 52868  53.2161  90.2875 0001160  95.1546 264.9578 15.08844372 70536,6917.867,95.437,540.534,538.93,0.0
52868.0,STARLINK-4261,PAYLOAD,2023-09-25 05:34:16,15.08846099,0.0001231,53.2167,88.5041,85.2946,274.8186,9.0151e-05,1.147e-05,0.0,0 STARLINK-4261,1 52868U 22062AQ  23268.23213640  .00001147  00000-0  90151-4 0  9996,2 52868  53.2167  88.5041 0001231  85.2946 274.8186 15.08846099 70599,6917.862,95.437,540.578,538.875,0.0
52868.0,STARLINK-4261,PAYLOAD,2023-09-25 18:17:21,15.08851553,0.0001173,53.2158,86.1252,87.7524,272.3602,0.00021536,3.142e-05,0.0,0 STARLINK-4261,1 52868U 22062AQ  23268.76205384  .00003142  00000-0  21536-3 0  9997,2 52868  53.2158  86.1252 0001173  87.7524 272.3602 15.08851553 71162,6917.845,95.437,540.522,538.899,0.0
52868.0,STARLINK-4261,PAYLOAD,2023-09-25 21:28:07,15.0885631,0.0001235,53.2161,85.5297,86.2181,273.8953,0.00029197,4.364e-05,0.0,0 STARLINK-4261,1 52868U 22062AQ  23268.89453132  .00004364  00000-0  29197-3 0  9995,2 52868  53.2161  85.5297 0001235  86.2181 273.8953 15.08856310 70698,6917.831,95.437,540.55,538.841,0.0
52868.0,STARLINK-4261,PAYLOAD,2023-09-25 23:03:30,15.08858955,0.0001226,53.216,85.233,87.4353,272.6779,0.00045275,6.929e-05,0.0,0 STARLINK-4261,1 52868U 22062AQ  23268.96077144  .00006929  00000-0  45275-3 0  9992,2 52868  53.2160  85.2330 0001226  87.4353 272.6779 15.08858955 70708,6917.822,95.436,540.536,538.839,0.0
52868.0,STARLINK-4261,PAYLOAD,2023-09-26 18:08:09,15.0883962,0.0001357,53.2156,81.6646,76.0487,284.0656,0.00014807,2.069e-05,0.0,0 STARLINK-4261,1 52868U 22062AQ  23269.75566200  .00002069  00000-0  14807-3 0  9994,2 52868  53.2156  81.6646 0001357  76.0487 284.0656 15.08839620 71317,6917.882,95.438,540.685,538.808,0.0
52868.0,STARLINK-4261,PAYLOAD,2023-09-26 21:18:55,15.08843169,0.0001397,53.2155,81.0691,84.3199,275.7952,0.00030413,4.556e-05,0.0,0 STARLINK-4261,1 52868U 22062AQ  23269.88814085  .00004556  00000-0  30413-3 0  9999,2 52868  53.2155  81.0691 0001397  84.3199 275.7952 15.08843169 70842,6917.871,95.437,540.702,538.769,0.0
52868.0,STARLINK-4261,PAYLOAD,2023-09-27 21:09:42,15.08841999,0.0001399,53.2164,76.6063,100.047,260.068,0.00027406,4.077e-05,0.0,0 STARLINK-4261,1 52868U 22062AQ  23270.88174365  .00004077  00000-0  27406-3 0  9997,2 52868  53.2164  76.6063 0001399 100.0470 260.0680 15.08841999 71480,6917.874,95.437,540.707,538.771,0.0
52868.0,STARLINK-4261,PAYLOAD,2023-09-28 14:38:57,15.08844817,0.0001456,53.2168,73.3342,103.0206,257.0949,0.00026724,3.968e-05,0.0,0 STARLINK-4261,1 52868U 22062AQ  23271.61038314  .00003968  00000-0  26724-3 0  9992,2 52868  53.2168  73.3342 0001456 103.0206 257.0949 15.08844817 71107,6917.866,95.437,540.738,538.723,0.0
52868.0,STARLINK-4261,PAYLOAD,2023-09-28 21:00:29,15.08844854,0.0001429,53.217,72.145,101.639,258.4763,0.00021187,3.086e-05,0.0,0 STARLINK-4261,1 52868U 22062AQ  23271.87534231  .00003086  00000-0  21187-3 0  9998,2 52868  53.2170  72.1450 0001429 101.6390 258.4763 15.08844854 71149,6917.866,95.437,540.719,538.742,0.0
52868.0,STARLINK-4261,PAYLOAD,2023-09-29 09:43:35,15.08835091,0.000147,53.217,69.7658,104.8364,255.2791,-9.2457e-06,-4.35e-06,0.0,0 STARLINK-4261,1 52868U 22062AQ  23272.40526644 -.00000435  00000-0 -92457-5 0  9994,2 52868  53.2170  69.7658 0001470 104.8364 255.2791 15.08835091 71715,6917.895,95.438,540.777,538.743,0.0
